NORAD_CAT_ID,OBJECT_NAME,OBJECT_TYPE,EPOCH,MEAN_MOTION,ECCENTRICITY,INCLINATION,RA_OF_ASC_NODE,ARG_OF_PERICENTER,MEAN_ANOMALY,BSTAR,MEAN_MOTION_DOT,MEAN_MOTION_DDOT,TLE_LINE0,TLE_LINE1,TLE_LINE2,SEMIMAJOR_AXIS,PERIOD,APOGEE,PERIGEE,DECAYED
56462.0,STARLINK-6045,PAYLOAD,2023-12-19 03:18:35,14.98323087,0.0001941,70.0012,350.4859,251.3724,108.7224,6.5736e-06,-1.4e-07,0.0,0 STARLINK-6045,1 56462U 23064Q   23353.13791273 -.00000014  00000-0  65736-5 0  9995,2 56462  70.0012 350.4859 0001941 251.3724 108.7224 14.98323087 35038,6950.214,96.107,573.428,570.73,0.0
56462.0,STARLINK-6045,PAYLOAD,2023-12-19 09:43:08,14.98315585,0.0002042,70.0009,349.8116,265.9972,94.0954,-8.1341e-05,-1.063e-05,0.0,0 STARLINK-6045,1 56462U 23064Q   23353.40496136 -.00001063  00000-0 -81341-4 0  9990,2 56462  70.0009 349.8116 0002042 265.9972  94.0954 14.98315585 35076,6950.237,96.108,573.522,570.683,0.0
56462.0,STARLINK-6045,PAYLOAD,2023-12-20 03:20:36,14.98336773,0.0002929,69.9991,347.9579,280.6404,79.4425,-0.00010111,-1.299e-05,0.0,0 STARLINK-6045,1 56462U 23064Q   23354.13930911 -.00001299  00000-0 -10111-3 0  9992,2 56462  69.9991 347.9579 0002929 280.6404  79.4425 14.98336773 35187,6950.172,96.107,574.073,570.001,0.0
56462.0,STARLINK-6045,PAYLOAD,2023-12-20 09:45:05,14.98375956,0.0001997,70.0028,347.2903,295.1024,64.9928,0.00044271,5.199e-05,0.0,0 STARLINK-6045,1 56462U 23064Q   23354.40631177  .00005199  00000-0  44271-3 0  9999,2 56462  70.0028 347.2903 0001997 295.1024  64.9928 14.98375956 35226,6950.051,96.104,573.304,570.528,0.0
56462.0,STARLINK-6045,PAYLOAD,2023-12-21 03:22:36,14.98318383,0.0003254,69.9988,345.4322,281.3338,78.7455,-9.302e-05,-1.202e-05,0.0,0 STARLINK-6045,1 56462U 23064Q   23355.14070568 -.00001202  00000-0 -93020-4 0  9992,2 56462  69.9988 345.4322 0003254 281.3338  78.7455 14.98318383 35337,6950.229,96.108,574.355,569.832,0.0
56462.0,STARLINK-6045,PAYLOAD,2023-12-21 09:47:09,14.98318027,0.0002826,69.9991,344.7595,268.6159,91.4676,-9.7215e-05,-1.252e-05,0.0,0 STARLINK-6045,1 56462U 23064Q   23355.40774651 -.00001252  00000-0 -97215-4 0  9990,2 56462  69.9991 344.7595 0002826 268.6159  91.4676 14.98318027 35015,6950.23,96.108,574.059,570.131,0.0
56462.0,STARLINK-6045,PAYLOAD,2023-12-22 03:24:38,14.98317421,0.0002736,69.9995,342.9083,268.3206,91.764,-0.0002199,-2.715e-05,0.0,0 STARLINK-6045,1 56462U 23064Q   23356.14211467 -.00002715  00000-0 -21990-3 0  9994,2 56462  69.9995 342.9083 0002736 268.3206  91.7640 14.98317421 35483,6950.232,96.108,573.998,570.195,0.0
56462.0,STARLINK-6045,PAYLOAD,2023-12-22 08:13:03,14.98317047,0.0002433,70.0003,342.4044,254.7972,105.2919,-0.00020278,-2.511e-05,0.0,0 STARLINK-6045,1 56462U 23064Q   23356.34239646 -.00002511  00000-0 -20278-3 0  9997,2 56462  70.0003 342.4044 0002433 254.7972 105.2919 14.98317047 35159,6950.233,96.108,573.789,570.407,0.0
56462.0,STARLINK-6045,PAYLOAD,2023-12-23 03:26:38,14.98315325,0.0002503,69.9996,340.3824,258.5908,101.497,0.00014163,1.597e-05,0.0,0 STARLINK-6045,1 56462U 23064Q   23357.14350555  .00001597  00000-0  14163-3 0  9996,2 56462  69.9996 340.3824 0002503 258.5908 101.4970 14.98315325 35634,6950.238,96.108,573.843,570.364,0.0
56462.0,STARLINK-6045,PAYLOAD,2023-12-23 08:15:02,14.98317996,0.0002268,70.0009,339.8796,241.011,119.0822,0.00017268,1.967e-05,0.0,0 STARLINK-6045,1 56462U 23064Q   23357.34378459  .00001967  00000-0  17268-3 0  9991,2 56462  70.0009 339.8796 0002268 241.0110 119.0822 14.98317996 35304,6950.23,96.108,573.671,570.519,0.0
56462.0,STARLINK-6045,PAYLOAD,2023-12-23 22:40:15,14.9831871,0.0002151,70.0009,338.3636,248.714,111.379,0.00019571,2.242e-05,0.0,0 STARLINK-6045,1 56462U 23064Q   23357.94462734  .00002242  00000-0  19571-3 0  9993,2 56462  70.0009 338.3636 0002151 248.7140 111.3790 14.98318710 35392,6950.228,96.108,573.588,570.598,0.0
56462.0,STARLINK-6045,PAYLOAD,2023-12-24 03:28:40,14.98315903,0.0002354,70.0003,337.8594,256.4265,103.6632,0.00011265,1.251e-05,0.0,0 STARLINK-6045,1 56462U 23064Q   23358.14491331  .00001251  00000-0  11265-3 0  9992,2 56462  70.0003 337.8594 0002354 256.4265 103.6632 14.98315903 35785,6950.236,96.108,573.738,570.465,0.0
56462.0,STARLINK-6045,PAYLOAD,2023-12-24 08:17:04,14.98317665,0.0002222,70.0007,337.3548,247.2315,112.861,0.00012761,1.43e-05,0.0,0 STARLINK-6045,1 56462U 23064Q   23358.34519285  .00001430  00000-0  12761-3 0  9994,2 56462  70.0007 337.3548 0002222 247.2315 112.8610 14.98317665 35450,6950.231,96.108,573.64,570.552,0.0
56462.0,STARLINK-6045,PAYLOAD,2023-12-25 03:30:41,14.98328949,0.0002603,69.9994,335.3321,261.3324,98.7541,-3.3172e-05,-4.89e-06,0.0,0 STARLINK-6045,1 56462U 23064Q   23359.14631146 -.00000489  00000-0 -33172-4 0  9999,2 56462  69.9994 335.3321 0002603 261.3324  98.7541 14.98328949 35934,6950.196,96.107,573.87,570.252,0.0
56462.0,STARLINK-6045,PAYLOAD,2023-12-25 08:19:05,14.98331674,0.0002554,69.9996,334.8277,262.5433,97.5436,1.0107e-05,2.8e-07,0.0,0 STARLINK-6045,1 56462U 23064Q   23359.34658884  .00000028  00000-0  10107-4 0  9999,2 56462  69.9996 334.8277 0002554 262.5433  97.5436 14.98331674 35602,6950.188,96.107,573.828,570.278,0.0
56462.0,STARLINK-6045,PAYLOAD,2023-12-25 22:44:17,14.98328184,0.0002506,69.9997,333.3129,265.3987,94.6886,3.5382e-05,3.29e-06,0.0,0 STARLINK-6045,1 56462U 23064Q   23359.94742941  .00000329  00000-0  35382-4 0  9999,2 56462  69.9997 333.3129 0002506 265.3987  94.6886 14.98328184 35693,6950.199,96.107,573.805,570.322,0.0
56462.0,STARLINK-6045,PAYLOAD,2023-12-26 03:32:42,14.98328321,0.0002508,70.0,332.808,268.7514,91.3358,2.9723e-05,2.62e-06,0.0,0 STARLINK-6045,1 56462U 23064Q   23360.14770987  .00000262  00000-0  29723-4 0  9992,2 56462  70.0000 332.8080 0002508 268.7514  91.3358 14.98328321 36081,6950.198,96.107,573.806,570.32,0.0
56462.0,STARLINK-6045,PAYLOAD,2023-12-26 08:21:06,14.98329938,0.0002497,70.0001,332.3034,268.0089,92.0785,4.2672e-05,4.16e-06,0.0,0 STARLINK-6045,1 56462U 23064Q   23360.34798833  .00000416  00000-0  42672-4 0  9993,2 56462  70.0001 332.3034 0002497 268.0089  92.0785 14.98329938 35753,6950.193,96.107,573.794,570.323,0.0
56462.0,STARLINK-6045,PAYLOAD,2023-12-26 22:46:18,14.98331112,0.0002435,70.0004,330.7898,254.7885,105.3005,1.1018e-05,3.9e-07,0.0,0 STARLINK-6045,1 56462U 23064Q   23360.94882761  .00000039  00000-0  11018-4 0  9994,2 56462  70.0004 330.7898 0002435 254.7885 105.3005 14.98331112 35844,6950.189,96.107,573.747,570.362,0.0
56462.0,STARLINK-6045,PAYLOAD,2023-12-27 03:34:42,14.98330146,0.0002527,70.0004,330.2842,254.2848,105.8033,1.0772e-05,3.6e-07,0.0,0 STARLINK-6045,1 56462U 23064Q   23361.14910820  .00000036  00000-0  10772-4 0  9998,2 56462  70.0004 330.2842 0002527 254.2848 105.8033 14.98330146 36230,6950.192,96.107,573.814,570.301,0.0
56462.0,STARLINK-6045,PAYLOAD,2023-12-27 08:23:06,14.98331504,0.0002359,70.0005,329.7788,253.4579,106.6321,6.0619e-05,6.3e-06,0.0,0 STARLINK-6045,1 56462U 23064Q   23361.34938590  .00000630  00000-0  60619-4 0  9999,2 56462  70.0005 329.7788 0002359 253.4579 106.6321 14.98331504 35909,6950.188,96.107,573.693,570.414,0.0
56462.0,STARLINK-6045,PAYLOAD,2023-12-27 22:48:19,14.9832733,0.0002084,70.0012,328.2623,251.9752,108.118,3.8496e-05,3.66e-06,0.0,0 STARLINK-6045,1 56462U 23064Q   23361.95022771  .00000366  00000-0  38496-4 0  9995,2 56462  70.0012 328.2623 0002084 251.9752 108.1180 14.98327330 35991,6950.201,96.107,573.515,570.618,0.0
56462.0,STARLINK-6045,PAYLOAD,2023-12-28 03:36:44,14.98324474,0.0002528,70.0005,327.7596,260.962,99.1253,-5.3828e-05,-7.35e-06,0.0,0 STARLINK-6045,1 56462U 23064Q   23362.15051338 -.00000735  00000-0 -53828-4 0  9997,2 56462  70.0005 327.7596 0002528 260.9620  99.1253 14.98324474 36383,6950.21,96.107,573.832,570.318,0.0
56462.0,STARLINK-6045,PAYLOAD,2023-12-28 08:25:08,14.98311201,0.000244,70.0004,327.2522,257.1064,102.9822,0.00025961,3.004e-05,0.0,0 STARLINK-6045,1 56462U 23064Q   23362.35079390  .00003004  00000-0  25961-3 0  9993,2 56462  70.0004 327.2522 0002440 257.1064 102.9822 14.98311201 36052,6950.251,96.108,573.812,570.42,0.0
56462.0,STARLINK-6045,PAYLOAD,2023-12-28 22:50:19,14.98343004,0.0002627,70.0001,325.7386,247.496,112.5921,0.00011208,1.245e-05,0.0,0 STARLINK-6045,1 56462U 23064Q   23362.95161738  .00001245  00000-0  11208-3 0  9991,2 56462  70.0001 325.7386 0002627 247.4960 112.5921 14.98343004 36147,6950.153,96.106,573.843,570.192,0.0
56462.0,STARLINK-6045,PAYLOAD,2023-12-29 03:38:51,14.98233622,0.0003654,70.0027,325.2352,200.3216,159.7798,-0.0010154,-0.00012158,0.0,0 STARLINK-6045,1 56462U 23064Q   23363.15198829 -.00012158  00000-0 -10154-2 0  9990,2 56462  70.0027 325.2352 0003654 200.3216 159.7798 14.98233622 36538,6950.491,96.113,574.896,569.816,0.0
56462.0,STARLINK-6045,PAYLOAD,2023-12-29 08:27:08,14.98334829,0.0002617,70.0002,324.7278,264.567,95.5191,6.5288e-05,6.86e-06,0.0,0 STARLINK-6045,1 56462U 23064Q   23363.35218332  .00000686  00000-0  65288-4 0  9995,2 56462  70.0002 324.7278 0002617 264.5670  95.5191 14.98334829 36564,6950.178,96.107,573.862,570.224,0.0
56462.0,STARLINK-6045,PAYLOAD,2023-12-29 22:52:21,14.98329328,0.0002804,70.0004,323.2123,262.2699,97.8142,6.5687e-05,6.91e-06,0.0,0 STARLINK-6045,1 56462U 23064Q   23363.95302446  .00000691  00000-0  65687-4 0  9990,2 56462  70.0004 323.2123 0002804 262.2699  97.8142 14.98329328 36292,6950.195,96.107,574.009,570.111,0.0
56462.0,STARLINK-6045,PAYLOAD,2023-12-30 06:53:01,14.98333657,0.0002631,70.0005,322.3703,271.8137,88.2721,9.7635e-05,1.072e-05,0.0,0 STARLINK-6045,1 56462U 23064Q   23364.28682150  .00001072  00000-0  97635-4 0  9992,2 56462  70.0005 322.3703 0002631 271.8137  88.2721 14.98333657 36341,6950.182,96.107,573.875,570.218,0.0
56462.0,STARLINK-6045,PAYLOAD,2023-12-30 22:54:22,14.98328196,0.0002632,70.0008,320.6891,246.84,113.2482,-0.00010688,-1.368e-05,0.0,0 STARLINK-6045,1 56462U 23064Q   23364.95443012 -.00001368  00000-0 -10688-3 0  9990,2 56462  70.0008 320.6891 0002632 246.8400 113.2482 14.98328196 36445,6950.198,96.107,573.893,570.234,0.0
